[{"OBJECT_NAME":"STARLINK-31473","OBJECT_ID":"2024-057V","EPOCH":"2026-03-09T07:36:30.420864","MEAN_MOTION":15.27568004,"ECCENTRICITY":0.00016783,"INCLINATION":43.0022,"RA_OF_ASC_NODE":189.0471,"ARG_OF_PERICENTER":284.5895,"MEAN_ANOMALY":75.4771,"EPHEMERIS_TYPE":0,"CLASSIFICATION_TYPE":"U","NORAD_CAT_ID":59339,"ELEMENT_SET_NO":999,"REV_AT_EPOCH":10978,"BSTAR":-5.3932856e-5,"MEAN_MOTION_DOT":-1.745e-5,"MEAN_MOTION_DDOT":0},{"OBJECT_NAME":"COSMOS 2251 DEB","OBJECT_ID":"1993-036BXP","EPOCH":"2026-03-04T07:23:49.847712","MEAN_MOTION":15.24789556,"ECCENTRICITY":0.00190834,"INCLINATION":73.9759,"RA_OF_ASC_NODE":64.3004,"ARG_OF_PERICENTER":239.4537,"MEAN_ANOMALY":120.4779,"EPHEMERIS_TYPE":0,"CLASSIFICATION_TYPE":"U","NORAD_CAT_ID":47059,"ELEMENT_SET_NO":999,"REV_AT_EPOCH":9543,"BSTAR":0.0048704033,"MEAN_MOTION_DOT":0.00123422,"MEAN_MOTION_DDOT":0}]
